{
  "type": "FeatureCollection",
  "features": [
    {
      "type": "Feature",
      "geometry": {
        "type": "Polygon",
        "coordinates": [
          [
            [
              139.665,
              35.615
            ],
            [
              139.705,
              35.615
            ],
            [
              139.705,
              35.648
            ],
            [
              139.665,
              35.648
            ],
            [
              139.665,
              35.615
            ]
          ]
        ]
      },
      "properties": {
        "name": "エリアA",
        "value": 12
      }
    },
    {
      "type": "Feature",
      "geometry": {
        "type": "Polygon",
        "coordinates": [
          [
            [
              139.705,
              35.615
            ],
            [
              139.745,
              35.615
            ],
            [
              139.745,
              35.648
            ],
            [
              139.705,
              35.648
            ],
            [
              139.705,
              35.615
            ]
          ]
        ]
      },
      "properties": {
        "name": "エリアB",
        "value": 34
      }
    },
    {
      "type": "Feature",
      "geometry": {
        "type": "Polygon",
        "coordinates": [
          [
            [
              139.745,
              35.615
            ],
            [
              139.785,
              35.615
            ],
            [
              139.785,
              35.648
            ],
            [
              139.745,
              35.648
            ],
            [
              139.745,
              35.615
            ]
          ]
        ]
      },
      "properties": {
        "name": "エリアC",
        "value": 58
      }
    },
    {
      "type": "Feature",
      "geometry": {
        "type": "Polygon",
        "coordinates": [
          [
            [
              139.665,
              35.648
            ],
            [
              139.705,
              35.648
            ],
            [
              139.705,
              35.681
            ],
            [
              139.665,
              35.681
            ],
            [
              139.665,
              35.648
            ]
          ]
        ]
      },
      "properties": {
        "name": "エリアD",
        "value": 27
      }
    },
    {
      "type": "Feature",
      "geometry": {
        "type": "Polygon",
        "coordinates": [
          [
            [
              139.705,
              35.648
            ],
            [
              139.745,
              35.648
            ],
            [
              139.745,
              35.681
            ],
            [
              139.705,
              35.681
            ],
            [
              139.705,
              35.648
            ]
          ]
        ]
      },
      "properties": {
        "name": "エリアE",
        "value": 72
      }
    },
    {
      "type": "Feature",
      "geometry": {
        "type": "Polygon",
        "coordinates": [
          [
            [
              139.745,
              35.648
            ],
            [
              139.785,
              35.648
            ],
            [
              139.785,
              35.681
            ],
            [
              139.745,
              35.681
            ],
            [
              139.745,
              35.648
            ]
          ]
        ]
      },
      "properties": {
        "name": "エリアF",
        "value": 90
      }
    },
    {
      "type": "Feature",
      "geometry": {
        "type": "Polygon",
        "coordinates": [
          [
            [
              139.665,
              35.681
            ],
            [
              139.705,
              35.681
            ],
            [
              139.705,
              35.714
            ],
            [
              139.665,
              35.714
            ],
            [
              139.665,
              35.681
            ]
          ]
        ]
      },
      "properties": {
        "name": "エリアG",
        "value": 45
      }
    },
    {
      "type": "Feature",
      "geometry": {
        "type": "Polygon",
        "coordinates": [
          [
            [
              139.705,
              35.681
            ],
            [
              139.745,
              35.681
            ],
            [
              139.745,
              35.714
            ],
            [
              139.705,
              35.714
            ],
            [
              139.705,
              35.681
            ]
          ]
        ]
      },
      "properties": {
        "name": "エリアH",
        "value": 63
      }
    },
    {
      "type": "Feature",
      "geometry": {
        "type": "Polygon",
        "coordinates": [
          [
            [
              139.745,
              35.681
            ],
            [
              139.785,
              35.681
            ],
            [
              139.785,
              35.714
            ],
            [
              139.745,
              35.714
            ],
            [
              139.745,
              35.681
            ]
          ]
        ]
      },
      "properties": {
        "name": "エリアI",
        "value": 8
      }
    }
  ]
}
