{"type":"FeatureCollection","features":[{"type":"Feature","geometry":{"type":"Point","coordinates":[139.77204,35.68219]},"properties":{"weight":5.6}},{"type":"Feature","geometry":{"type":"Point","coordinates":[139.71352,35.67065]},"properties":{"weight":4.4}},{"type":"Feature","geometry":{"type":"Point","coordinates":[139.74667,35.64119]},"properties":{"weight":1.2}},{"type":"Feature","geometry":{"type":"Point","coordinates":[139.75068,35.67057]},"properties":{"weight":6}},{"type":"Feature","geometry":{"type":"Point","coordinates":[139.71422,35.66657]},"properties":{"weight":2.8}},{"type":"Feature","geometry":{"type":"Point","coordinates":[139.73078,35.63883]},"properties":{"weight":5.5}},{"type":"Feature","geometry":{"type":"Point","coordinates":[139.78809,35.69819]},"properties":{"weight":3.3}},{"type":"Feature","geometry":{"type":"Point","coordinates":[139.68847,35.67508]},"properties":{"weight":1.2}},{"type":"Feature","geometry":{"type":"Point","coordinates":[139.76137,35.68176]},"properties":{"weight":5}},{"type":"Feature","geometry":{"type":"Point","coordinates":[139.744,35.67305]},"properties":{"weight":4.2}},{"type":"Feature","geometry":{"type":"Point","coordinates":[139.67496,35.64645]},"properties":{"weight":3.5}},{"type":"Feature","geometry":{"type":"Point","coordinates":[139.7615,35.64717]},"properties":{"weight":3.6}},{"type":"Feature","geometry":{"type":"Point","coordinates":[139.73727,35.68506]},"properties":{"weight":3.8}},{"type":"Feature","geometry":{"type":"Point","coordinates":[139.71069,35.6681]},"properties":{"weight":5.3}},{"type":"Feature","geometry":{"type":"Point","coordinates":[139.76417,35.6451]},"properties":{"weight":5.2}},{"type":"Feature","geometry":{"type":"Point","coordinates":[139.76278,35.70209]},"properties":{"weight":1.7}},{"type":"Feature","geometry":{"type":"Point","coordinates":[139.72239,35.6475]},"properties":{"weight":1.1}},{"type":"Feature","geometry":{"type":"Point","coordinates":[139.74472,35.63488]},"properties":{"weight":1.8}},{"type":"Feature","geometry":{"type":"Point","coordinates":[139.79333,35.66825]},"properties":{"weight":2.6}},{"type":"Feature","geometry":{"type":"Point","coordinates":[139.70846,35.66966]},"properties":{"weight":3.9}},{"type":"Feature","geometry":{"type":"Point","coordinates":[139.76381,35.664]},"properties":{"weight":4.1}},{"type":"Feature","geometry":{"type":"Point","coordinates":[139.74243,35.66967]},"properties":{"weight":1.4}},{"type":"Feature","geometry":{"type":"Point","coordinates":[139.7256,35.6818]},"properties":{"weight":2.2}},{"type":"Feature","geometry":{"type":"Point","coordinates":[139.76425,35.64468]},"properties":{"weight":3.1}},{"type":"Feature","geometry":{"type":"Point","coordinates":[139.74141,35.6575]},"properties":{"weight":1.7}},{"type":"Feature","geometry":{"type":"Point","coordinates":[139.69294,35.66014]},"properties":{"weight":6}},{"type":"Feature","geometry":{"type":"Point","coordinates":[139.74083,35.65259]},"properties":{"weight":2.8}},{"type":"Feature","geometry":{"type":"Point","coordinates":[139.77488,35.67698]},"properties":{"weight":1.1}},{"type":"Feature","geometry":{"type":"Point","coordinates":[139.71703,35.65461]},"properties":{"weight":5.1}},{"type":"Feature","geometry":{"type":"Point","coordinates":[139.72566,35.66771]},"properties":{"weight":3.6}},{"type":"Feature","geometry":{"type":"Point","coordinates":[139.78294,35.68763]},"properties":{"weight":3.4}},{"type":"Feature","geometry":{"type":"Point","coordinates":[139.69665,35.64472]},"properties":{"weight":1.1}},{"type":"Feature","geometry":{"type":"Point","coordinates":[139.73516,35.66062]},"properties":{"weight":2.4}},{"type":"Feature","geometry":{"type":"Point","coordinates":[139.79638,35.6974]},"properties":{"weight":4}},{"type":"Feature","geometry":{"type":"Point","coordinates":[139.67751,35.68067]},"properties":{"weight":3.9}},{"type":"Feature","geometry":{"type":"Point","coordinates":[139.75112,35.63983]},"properties":{"weight":1.5}},{"type":"Feature","geometry":{"type":"Point","coordinates":[139.78698,35.68968]},"properties":{"weight":3.3}},{"type":"Feature","geometry":{"type":"Point","coordinates":[139.71842,35.66518]},"properties":{"weight":5.3}},{"type":"Feature","geometry":{"type":"Point","coordinates":[139.73562,35.64]},"properties":{"weight":3.3}},{"type":"Feature","geometry":{"type":"Point","coordinates":[139.74116,35.70142]},"properties":{"weight":2.7}},{"type":"Feature","geometry":{"type":"Point","coordinates":[139.71408,35.6584]},"properties":{"weight":1.3}},{"type":"Feature","geometry":{"type":"Point","coordinates":[139.72085,35.66052]},"properties":{"weight":3.2}},{"type":"Feature","geometry":{"type":"Point","coordinates":[139.79413,35.65768]},"properties":{"weight":5.7}},{"type":"Feature","geometry":{"type":"Point","coordinates":[139.72773,35.66349]},"properties":{"weight":4.1}},{"type":"Feature","geometry":{"type":"Point","coordinates":[139.74682,35.65663]},"properties":{"weight":3.6}},{"type":"Feature","geometry":{"type":"Point","coordinates":[139.75101,35.66717]},"properties":{"weight":1.5}},{"type":"Feature","geometry":{"type":"Point","coordinates":[139.6915,35.68254]},"properties":{"weight":4.2}},{"type":"Feature","geometry":{"type":"Point","coordinates":[139.72927,35.6687]},"properties":{"weight":2.4}},{"type":"Feature","geometry":{"type":"Point","coordinates":[139.77954,35.70046]},"properties":{"weight":2.3}},{"type":"Feature","geometry":{"type":"Point","coordinates":[139.67545,35.66031]},"properties":{"weight":4.8}},{"type":"Feature","geometry":{"type":"Point","coordinates":[139.7539,35.64567]},"properties":{"weight":4.8}},{"type":"Feature","geometry":{"type":"Point","coordinates":[139.79346,35.6647]},"properties":{"weight":1.2}},{"type":"Feature","geometry":{"type":"Point","coordinates":[139.68619,35.64203]},"properties":{"weight":3.3}},{"type":"Feature","geometry":{"type":"Point","coordinates":[139.72987,35.67208]},"properties":{"weight":2.3}},{"type":"Feature","geometry":{"type":"Point","coordinates":[139.74047,35.6662]},"properties":{"weight":2.7}},{"type":"Feature","geometry":{"type":"Point","coordinates":[139.67426,35.6739]},"properties":{"weight":1}},{"type":"Feature","geometry":{"type":"Point","coordinates":[139.76784,35.63719]},"properties":{"weight":4.5}},{"type":"Feature","geometry":{"type":"Point","coordinates":[139.74872,35.69514]},"properties":{"weight":2.6}},{"type":"Feature","geometry":{"type":"Point","coordinates":[139.69435,35.66048]},"properties":{"weight":3.1}},{"type":"Feature","geometry":{"type":"Point","coordinates":[139.75696,35.66966]},"properties":{"weight":4.4}},{"type":"Feature","geometry":{"type":"Point","coordinates":[139.76173,35.67181]},"properties":{"weight":4}},{"type":"Feature","geometry":{"type":"Point","coordinates":[139.7191,35.67874]},"properties":{"weight":3}},{"type":"Feature","geometry":{"type":"Point","coordinates":[139.71866,35.63724]},"properties":{"weight":5.5}},{"type":"Feature","geometry":{"type":"Point","coordinates":[139.77052,35.68483]},"properties":{"weight":5.5}},{"type":"Feature","geometry":{"type":"Point","coordinates":[139.72101,35.67473]},"properties":{"weight":5.3}},{"type":"Feature","geometry":{"type":"Point","coordinates":[139.7184,35.65331]},"properties":{"weight":3}},{"type":"Feature","geometry":{"type":"Point","coordinates":[139.7393,35.67985]},"properties":{"weight":4.4}},{"type":"Feature","geometry":{"type":"Point","coordinates":[139.70843,35.67516]},"properties":{"weight":4.4}},{"type":"Feature","geometry":{"type":"Point","coordinates":[139.75526,35.6348]},"properties":{"weight":5.1}},{"type":"Feature","geometry":{"type":"Point","coordinates":[139.77101,35.67156]},"properties":{"weight":1.8}},{"type":"Feature","geometry":{"type":"Point","coordinates":[139.68167,35.63392]},"properties":{"weight":1.9}},{"type":"Feature","geometry":{"type":"Point","coordinates":[139.75773,35.63741]},"properties":{"weight":1.8}},{"type":"Feature","geometry":{"type":"Point","coordinates":[139.7783,35.66271]},"properties":{"weight":1.9}},{"type":"Feature","geometry":{"type":"Point","coordinates":[139.67183,35.64029]},"properties":{"weight":5.2}},{"type":"Feature","geometry":{"type":"Point","coordinates":[139.76024,35.65107]},"properties":{"weight":2.9}},{"type":"Feature","geometry":{"type":"Point","coordinates":[139.77833,35.67526]},"properties":{"weight":4.1}},{"type":"Feature","geometry":{"type":"Point","coordinates":[139.72111,35.66629]},"properties":{"weight":3}},{"type":"Feature","geometry":{"type":"Point","coordinates":[139.7157,35.63585]},"properties":{"weight":1.2}},{"type":"Feature","geometry":{"type":"Point","coordinates":[139.75833,35.6822]},"properties":{"weight":1.9}},{"type":"Feature","geometry":{"type":"Point","coordinates":[139.71637,35.66743]},"properties":{"weight":2.9}},{"type":"Feature","geometry":{"type":"Point","coordinates":[139.72103,35.64751]},"properties":{"weight":3.1}},{"type":"Feature","geometry":{"type":"Point","coordinates":[139.7804,35.66435]},"properties":{"weight":4.2}},{"type":"Feature","geometry":{"type":"Point","coordinates":[139.72274,35.65507]},"properties":{"weight":5.4}},{"type":"Feature","geometry":{"type":"Point","coordinates":[139.72289,35.66855]},"properties":{"weight":1.5}},{"type":"Feature","geometry":{"type":"Point","coordinates":[139.79546,35.68237]},"properties":{"weight":4.7}},{"type":"Feature","geometry":{"type":"Point","coordinates":[139.68987,35.66203]},"properties":{"weight":4.5}},{"type":"Feature","geometry":{"type":"Point","coordinates":[139.77299,35.63697]},"properties":{"weight":1.3}},{"type":"Feature","geometry":{"type":"Point","coordinates":[139.76904,35.67125]},"properties":{"weight":2.7}},{"type":"Feature","geometry":{"type":"Point","coordinates":[139.68335,35.6641]},"properties":{"weight":1.9}},{"type":"Feature","geometry":{"type":"Point","coordinates":[139.73114,35.66235]},"properties":{"weight":3.1}},{"type":"Feature","geometry":{"type":"Point","coordinates":[139.75142,35.67938]},"properties":{"weight":3.3}},{"type":"Feature","geometry":{"type":"Point","coordinates":[139.67799,35.66535]},"properties":{"weight":4.7}},{"type":"Feature","geometry":{"type":"Point","coordinates":[139.76472,35.63611]},"properties":{"weight":5.3}},{"type":"Feature","geometry":{"type":"Point","coordinates":[139.78902,35.6929]},"properties":{"weight":4.3}},{"type":"Feature","geometry":{"type":"Point","coordinates":[139.69522,35.63795]},"properties":{"weight":5.5}},{"type":"Feature","geometry":{"type":"Point","coordinates":[139.75289,35.68233]},"properties":{"weight":2.3}},{"type":"Feature","geometry":{"type":"Point","coordinates":[139.77677,35.67779]},"properties":{"weight":5.7}},{"type":"Feature","geometry":{"type":"Point","coordinates":[139.72104,35.66386]},"properties":{"weight":1.3}},{"type":"Feature","geometry":{"type":"Point","coordinates":[139.75379,35.68203]},"properties":{"weight":1.2}},{"type":"Feature","geometry":{"type":"Point","coordinates":[139.74638,35.68784]},"properties":{"weight":1.5}},{"type":"Feature","geometry":{"type":"Point","coordinates":[139.72726,35.6463]},"properties":{"weight":4.3}},{"type":"Feature","geometry":{"type":"Point","coordinates":[139.74735,35.66729]},"properties":{"weight":3.8}},{"type":"Feature","geometry":{"type":"Point","coordinates":[139.7492,35.66567]},"properties":{"weight":4.2}},{"type":"Feature","geometry":{"type":"Point","coordinates":[139.70669,35.66399]},"properties":{"weight":4.7}},{"type":"Feature","geometry":{"type":"Point","coordinates":[139.75893,35.67919]},"properties":{"weight":5.8}},{"type":"Feature","geometry":{"type":"Point","coordinates":[139.74542,35.70289]},"properties":{"weight":1.9}},{"type":"Feature","geometry":{"type":"Point","coordinates":[139.73059,35.63973]},"properties":{"weight":5.3}},{"type":"Feature","geometry":{"type":"Point","coordinates":[139.73914,35.64617]},"properties":{"weight":1.1}},{"type":"Feature","geometry":{"type":"Point","coordinates":[139.75516,35.68316]},"properties":{"weight":5.7}},{"type":"Feature","geometry":{"type":"Point","coordinates":[139.69116,35.65029]},"properties":{"weight":2.5}},{"type":"Feature","geometry":{"type":"Point","coordinates":[139.74025,35.64902]},"properties":{"weight":1.3}},{"type":"Feature","geometry":{"type":"Point","coordinates":[139.76162,35.66919]},"properties":{"weight":4.7}},{"type":"Feature","geometry":{"type":"Point","coordinates":[139.71752,35.67818]},"properties":{"weight":2}},{"type":"Feature","geometry":{"type":"Point","coordinates":[139.73332,35.6476]},"properties":{"weight":2.2}},{"type":"Feature","geometry":{"type":"Point","coordinates":[139.78779,35.6654]},"properties":{"weight":2.3}},{"type":"Feature","geometry":{"type":"Point","coordinates":[139.72963,35.64571]},"properties":{"weight":2.9}},{"type":"Feature","geometry":{"type":"Point","coordinates":[139.7673,35.66512]},"properties":{"weight":2.8}},{"type":"Feature","geometry":{"type":"Point","coordinates":[139.77265,35.70381]},"properties":{"weight":2.2}},{"type":"Feature","geometry":{"type":"Point","coordinates":[139.71197,35.63948]},"properties":{"weight":4.8}},{"type":"Feature","geometry":{"type":"Point","coordinates":[139.74994,35.63445]},"properties":{"weight":5.1}},{"type":"Feature","geometry":{"type":"Point","coordinates":[139.74387,35.66523]},"properties":{"weight":5.1}},{"type":"Feature","geometry":{"type":"Point","coordinates":[139.72424,35.63782]},"properties":{"weight":5.9}},{"type":"Feature","geometry":{"type":"Point","coordinates":[139.73575,35.66593]},"properties":{"weight":4}},{"type":"Feature","geometry":{"type":"Point","coordinates":[139.75762,35.67417]},"properties":{"weight":3.3}},{"type":"Feature","geometry":{"type":"Point","coordinates":[139.67928,35.67942]},"properties":{"weight":5}},{"type":"Feature","geometry":{"type":"Point","coordinates":[139.71787,35.66256]},"properties":{"weight":2.6}},{"type":"Feature","geometry":{"type":"Point","coordinates":[139.74877,35.69346]},"properties":{"weight":2.7}},{"type":"Feature","geometry":{"type":"Point","coordinates":[139.70938,35.67051]},"properties":{"weight":5.3}},{"type":"Feature","geometry":{"type":"Point","coordinates":[139.75344,35.67925]},"properties":{"weight":5.9}},{"type":"Feature","geometry":{"type":"Point","coordinates":[139.76677,35.7005]},"properties":{"weight":1.8}},{"type":"Feature","geometry":{"type":"Point","coordinates":[139.6745,35.64863]},"properties":{"weight":2.6}},{"type":"Feature","geometry":{"type":"Point","coordinates":[139.73864,35.63743]},"properties":{"weight":4.9}},{"type":"Feature","geometry":{"type":"Point","coordinates":[139.76536,35.6992]},"properties":{"weight":5.3}},{"type":"Feature","geometry":{"type":"Point","coordinates":[139.71899,35.67707]},"properties":{"weight":1.1}},{"type":"Feature","geometry":{"type":"Point","coordinates":[139.7354,35.68111]},"properties":{"weight":4.9}},{"type":"Feature","geometry":{"type":"Point","coordinates":[139.7543,35.7005]},"properties":{"weight":3.3}},{"type":"Feature","geometry":{"type":"Point","coordinates":[139.69905,35.65388]},"properties":{"weight":1.1}},{"type":"Feature","geometry":{"type":"Point","coordinates":[139.75411,35.66943]},"properties":{"weight":3}},{"type":"Feature","geometry":{"type":"Point","coordinates":[139.77783,35.69442]},"properties":{"weight":5.3}},{"type":"Feature","geometry":{"type":"Point","coordinates":[139.67867,35.65374]},"properties":{"weight":3.9}},{"type":"Feature","geometry":{"type":"Point","coordinates":[139.76777,35.64838]},"properties":{"weight":1.4}},{"type":"Feature","geometry":{"type":"Point","coordinates":[139.79233,35.70425]},"properties":{"weight":5.2}},{"type":"Feature","geometry":{"type":"Point","coordinates":[139.71213,35.6377]},"properties":{"weight":2.8}},{"type":"Feature","geometry":{"type":"Point","coordinates":[139.73433,35.6793]},"properties":{"weight":5.6}},{"type":"Feature","geometry":{"type":"Point","coordinates":[139.79491,35.69022]},"properties":{"weight":2.7}},{"type":"Feature","geometry":{"type":"Point","coordinates":[139.68639,35.64998]},"properties":{"weight":1.5}},{"type":"Feature","geometry":{"type":"Point","coordinates":[139.75135,35.67002]},"properties":{"weight":6}},{"type":"Feature","geometry":{"type":"Point","coordinates":[139.76082,35.65876]},"properties":{"weight":5.5}},{"type":"Feature","geometry":{"type":"Point","coordinates":[139.71949,35.64899]},"properties":{"weight":6}},{"type":"Feature","geometry":{"type":"Point","coordinates":[139.76668,35.66213]},"properties":{"weight":3.1}},{"type":"Feature","geometry":{"type":"Point","coordinates":[139.76743,35.66522]},"properties":{"weight":1.8}},{"type":"Feature","geometry":{"type":"Point","coordinates":[139.72897,35.64753]},"properties":{"weight":3.2}},{"type":"Feature","geometry":{"type":"Point","coordinates":[139.73255,35.68041]},"properties":{"weight":5.7}},{"type":"Feature","geometry":{"type":"Point","coordinates":[139.77881,35.68721]},"properties":{"weight":3.2}},{"type":"Feature","geometry":{"type":"Point","coordinates":[139.70303,35.67545]},"properties":{"weight":2.8}},{"type":"Feature","geometry":{"type":"Point","coordinates":[139.72765,35.65647]},"properties":{"weight":1.4}},{"type":"Feature","geometry":{"type":"Point","coordinates":[139.76499,35.67791]},"properties":{"weight":1.7}},{"type":"Feature","geometry":{"type":"Point","coordinates":[139.68285,35.65075]},"properties":{"weight":2.5}},{"type":"Feature","geometry":{"type":"Point","coordinates":[139.72961,35.63838]},"properties":{"weight":2}},{"type":"Feature","geometry":{"type":"Point","coordinates":[139.78772,35.65632]},"properties":{"weight":2.1}},{"type":"Feature","geometry":{"type":"Point","coordinates":[139.72766,35.65413]},"properties":{"weight":5.2}},{"type":"Feature","geometry":{"type":"Point","coordinates":[139.74228,35.67127]},"properties":{"weight":4.8}},{"type":"Feature","geometry":{"type":"Point","coordinates":[139.75273,35.70185]},"properties":{"weight":5.1}},{"type":"Feature","geometry":{"type":"Point","coordinates":[139.71695,35.66029]},"properties":{"weight":4.2}},{"type":"Feature","geometry":{"type":"Point","coordinates":[139.74723,35.67777]},"properties":{"weight":4.8}},{"type":"Feature","geometry":{"type":"Point","coordinates":[139.78789,35.69736]},"properties":{"weight":2.4}},{"type":"Feature","geometry":{"type":"Point","coordinates":[139.6826,35.6467]},"properties":{"weight":1.8}},{"type":"Feature","geometry":{"type":"Point","coordinates":[139.77056,35.67996]},"properties":{"weight":1.9}},{"type":"Feature","geometry":{"type":"Point","coordinates":[139.76969,35.65741]},"properties":{"weight":3.3}},{"type":"Feature","geometry":{"type":"Point","coordinates":[139.68351,35.66701]},"properties":{"weight":5.2}},{"type":"Feature","geometry":{"type":"Point","coordinates":[139.76152,35.66888]},"properties":{"weight":1.2}},{"type":"Feature","geometry":{"type":"Point","coordinates":[139.74733,35.65998]},"properties":{"weight":5.5}},{"type":"Feature","geometry":{"type":"Point","coordinates":[139.71692,35.65213]},"properties":{"weight":5.6}},{"type":"Feature","geometry":{"type":"Point","coordinates":[139.7675,35.66191]},"properties":{"weight":2.7}},{"type":"Feature","geometry":{"type":"Point","coordinates":[139.7912,35.65664]},"properties":{"weight":5.3}},{"type":"Feature","geometry":{"type":"Point","coordinates":[139.71703,35.67169]},"properties":{"weight":5.1}},{"type":"Feature","geometry":{"type":"Point","coordinates":[139.74711,35.65766]},"properties":{"weight":4}},{"type":"Feature","geometry":{"type":"Point","coordinates":[139.7794,35.68878]},"properties":{"weight":4.8}},{"type":"Feature","geometry":{"type":"Point","coordinates":[139.7288,35.67168]},"properties":{"weight":5}},{"type":"Feature","geometry":{"type":"Point","coordinates":[139.76985,35.67548]},"properties":{"weight":1.9}},{"type":"Feature","geometry":{"type":"Point","coordinates":[139.77536,35.67408]},"properties":{"weight":5.8}},{"type":"Feature","geometry":{"type":"Point","coordinates":[139.70477,35.68258]},"properties":{"weight":1.5}},{"type":"Feature","geometry":{"type":"Point","coordinates":[139.73667,35.6809]},"properties":{"weight":2.6}},{"type":"Feature","geometry":{"type":"Point","coordinates":[139.77571,35.65745]},"properties":{"weight":2}},{"type":"Feature","geometry":{"type":"Point","coordinates":[139.72264,35.65375]},"properties":{"weight":5.8}},{"type":"Feature","geometry":{"type":"Point","coordinates":[139.75237,35.64461]},"properties":{"weight":3.2}},{"type":"Feature","geometry":{"type":"Point","coordinates":[139.75242,35.68081]},"properties":{"weight":4.9}},{"type":"Feature","geometry":{"type":"Point","coordinates":[139.68005,35.65458]},"properties":{"weight":2.1}},{"type":"Feature","geometry":{"type":"Point","coordinates":[139.72417,35.67478]},"properties":{"weight":4.1}},{"type":"Feature","geometry":{"type":"Point","coordinates":[139.7737,35.70039]},"properties":{"weight":3.7}},{"type":"Feature","geometry":{"type":"Point","coordinates":[139.72536,35.63804]},"properties":{"weight":1.7}},{"type":"Feature","geometry":{"type":"Point","coordinates":[139.75606,35.67125]},"properties":{"weight":4.8}},{"type":"Feature","geometry":{"type":"Point","coordinates":[139.77042,35.68166]},"properties":{"weight":3.9}},{"type":"Feature","geometry":{"type":"Point","coordinates":[139.70683,35.67298]},"properties":{"weight":2.7}},{"type":"Feature","geometry":{"type":"Point","coordinates":[139.75262,35.66985]},"properties":{"weight":3.2}},{"type":"Feature","geometry":{"type":"Point","coordinates":[139.75913,35.67049]},"properties":{"weight":4.7}},{"type":"Feature","geometry":{"type":"Point","coordinates":[139.70031,35.64681]},"properties":{"weight":2.1}},{"type":"Feature","geometry":{"type":"Point","coordinates":[139.74353,35.63768]},"properties":{"weight":3.3}},{"type":"Feature","geometry":{"type":"Point","coordinates":[139.74306,35.66511]},"properties":{"weight":4.6}},{"type":"Feature","geometry":{"type":"Point","coordinates":[139.72603,35.65609]},"properties":{"weight":5.7}},{"type":"Feature","geometry":{"type":"Point","coordinates":[139.71569,35.67248]},"properties":{"weight":3.8}},{"type":"Feature","geometry":{"type":"Point","coordinates":[139.7537,35.67663]},"properties":{"weight":4.9}},{"type":"Feature","geometry":{"type":"Point","coordinates":[139.69135,35.65814]},"properties":{"weight":5.5}},{"type":"Feature","geometry":{"type":"Point","coordinates":[139.73956,35.65931]},"properties":{"weight":4.5}},{"type":"Feature","geometry":{"type":"Point","coordinates":[139.77272,35.69326]},"properties":{"weight":3.6}},{"type":"Feature","geometry":{"type":"Point","coordinates":[139.68265,35.64087]},"properties":{"weight":5.9}},{"type":"Feature","geometry":{"type":"Point","coordinates":[139.72392,35.66858]},"properties":{"weight":3.3}},{"type":"Feature","geometry":{"type":"Point","coordinates":[139.786,35.68991]},"properties":{"weight":1.3}},{"type":"Feature","geometry":{"type":"Point","coordinates":[139.69362,35.63931]},"properties":{"weight":3.7}},{"type":"Feature","geometry":{"type":"Point","coordinates":[139.74727,35.67818]},"properties":{"weight":3.3}},{"type":"Feature","geometry":{"type":"Point","coordinates":[139.75296,35.68206]},"properties":{"weight":1.1}},{"type":"Feature","geometry":{"type":"Point","coordinates":[139.71053,35.6726]},"properties":{"weight":2.2}},{"type":"Feature","geometry":{"type":"Point","coordinates":[139.76515,35.64479]},"properties":{"weight":5.1}},{"type":"Feature","geometry":{"type":"Point","coordinates":[139.79153,35.67027]},"properties":{"weight":2.3}},{"type":"Feature","geometry":{"type":"Point","coordinates":[139.71266,35.6808]},"properties":{"weight":1.4}},{"type":"Feature","geometry":{"type":"Point","coordinates":[139.71737,35.66764]},"properties":{"weight":1.2}},{"type":"Feature","geometry":{"type":"Point","coordinates":[139.74047,35.68792]},"properties":{"weight":1.1}},{"type":"Feature","geometry":{"type":"Point","coordinates":[139.6731,35.66087]},"properties":{"weight":2.6}},{"type":"Feature","geometry":{"type":"Point","coordinates":[139.72248,35.65732]},"properties":{"weight":6}},{"type":"Feature","geometry":{"type":"Point","coordinates":[139.78113,35.67951]},"properties":{"weight":5.1}},{"type":"Feature","geometry":{"type":"Point","coordinates":[139.71964,35.65667]},"properties":{"weight":2.3}},{"type":"Feature","geometry":{"type":"Point","coordinates":[139.76006,35.6582]},"properties":{"weight":1.6}},{"type":"Feature","geometry":{"type":"Point","coordinates":[139.79603,35.6653]},"properties":{"weight":1.6}},{"type":"Feature","geometry":{"type":"Point","coordinates":[139.67647,35.66327]},"properties":{"weight":3.3}},{"type":"Feature","geometry":{"type":"Point","coordinates":[139.72939,35.67578]},"properties":{"weight":2.7}},{"type":"Feature","geometry":{"type":"Point","coordinates":[139.76999,35.70071]},"properties":{"weight":5.6}},{"type":"Feature","geometry":{"type":"Point","coordinates":[139.72992,35.63986]},"properties":{"weight":4.6}},{"type":"Feature","geometry":{"type":"Point","coordinates":[139.73208,35.65553]},"properties":{"weight":1.1}},{"type":"Feature","geometry":{"type":"Point","coordinates":[139.77969,35.68052]},"properties":{"weight":5.5}},{"type":"Feature","geometry":{"type":"Point","coordinates":[139.71721,35.64603]},"properties":{"weight":4}},{"type":"Feature","geometry":{"type":"Point","coordinates":[139.74161,35.67962]},"properties":{"weight":3.3}},{"type":"Feature","geometry":{"type":"Point","coordinates":[139.74315,35.67589]},"properties":{"weight":2}},{"type":"Feature","geometry":{"type":"Point","coordinates":[139.72629,35.68151]},"properties":{"weight":2.7}},{"type":"Feature","geometry":{"type":"Point","coordinates":[139.77253,35.65771]},"properties":{"weight":5.4}},{"type":"Feature","geometry":{"type":"Point","coordinates":[139.74769,35.67326]},"properties":{"weight":5.8}},{"type":"Feature","geometry":{"type":"Point","coordinates":[139.68269,35.65099]},"properties":{"weight":1.6}},{"type":"Feature","geometry":{"type":"Point","coordinates":[139.76168,35.65811]},"properties":{"weight":4.1}},{"type":"Feature","geometry":{"type":"Point","coordinates":[139.78003,35.66314]},"properties":{"weight":4.8}},{"type":"Feature","geometry":{"type":"Point","coordinates":[139.72458,35.64131]},"properties":{"weight":1.4}},{"type":"Feature","geometry":{"type":"Point","coordinates":[139.72181,35.6542]},"properties":{"weight":3.6}},{"type":"Feature","geometry":{"type":"Point","coordinates":[139.77134,35.69476]},"properties":{"weight":2.6}},{"type":"Feature","geometry":{"type":"Point","coordinates":[139.72648,35.63578]},"properties":{"weight":2.1}},{"type":"Feature","geometry":{"type":"Point","coordinates":[139.71955,35.65916]},"properties":{"weight":2.9}},{"type":"Feature","geometry":{"type":"Point","coordinates":[139.77411,35.65654]},"properties":{"weight":3.2}},{"type":"Feature","geometry":{"type":"Point","coordinates":[139.6718,35.64764]},"properties":{"weight":3}},{"type":"Feature","geometry":{"type":"Point","coordinates":[139.76175,35.65022]},"properties":{"weight":5.3}},{"type":"Feature","geometry":{"type":"Point","coordinates":[139.76786,35.69275]},"properties":{"weight":2.6}},{"type":"Feature","geometry":{"type":"Point","coordinates":[139.67846,35.67319]},"properties":{"weight":2}},{"type":"Feature","geometry":{"type":"Point","coordinates":[139.73976,35.65148]},"properties":{"weight":1.1}},{"type":"Feature","geometry":{"type":"Point","coordinates":[139.74134,35.68092]},"properties":{"weight":6}},{"type":"Feature","geometry":{"type":"Point","coordinates":[139.67584,35.63695]},"properties":{"weight":1.5}},{"type":"Feature","geometry":{"type":"Point","coordinates":[139.76871,35.67278]},"properties":{"weight":4.6}},{"type":"Feature","geometry":{"type":"Point","coordinates":[139.76092,35.69081]},"properties":{"weight":5.1}},{"type":"Feature","geometry":{"type":"Point","coordinates":[139.68054,35.67088]},"properties":{"weight":5.1}},{"type":"Feature","geometry":{"type":"Point","coordinates":[139.72487,35.67677]},"properties":{"weight":1.3}},{"type":"Feature","geometry":{"type":"Point","coordinates":[139.77883,35.69632]},"properties":{"weight":5.6}},{"type":"Feature","geometry":{"type":"Point","coordinates":[139.68936,35.6729]},"properties":{"weight":4.8}},{"type":"Feature","geometry":{"type":"Point","coordinates":[139.73977,35.68151]},"properties":{"weight":5.6}},{"type":"Feature","geometry":{"type":"Point","coordinates":[139.77592,35.68117]},"properties":{"weight":3.9}},{"type":"Feature","geometry":{"type":"Point","coordinates":[139.69572,35.66523]},"properties":{"weight":4}},{"type":"Feature","geometry":{"type":"Point","coordinates":[139.76409,35.64804]},"properties":{"weight":1.5}},{"type":"Feature","geometry":{"type":"Point","coordinates":[139.78802,35.67052]},"properties":{"weight":1.9}},{"type":"Feature","geometry":{"type":"Point","coordinates":[139.68603,35.65914]},"properties":{"weight":5.3}},{"type":"Feature","geometry":{"type":"Point","coordinates":[139.75744,35.65882]},"properties":{"weight":1.9}},{"type":"Feature","geometry":{"type":"Point","coordinates":[139.73792,35.67776]},"properties":{"weight":5}},{"type":"Feature","geometry":{"type":"Point","coordinates":[139.67745,35.67888]},"properties":{"weight":1.6}},{"type":"Feature","geometry":{"type":"Point","coordinates":[139.72788,35.66651]},"properties":{"weight":3.1}},{"type":"Feature","geometry":{"type":"Point","coordinates":[139.73832,35.6756]},"properties":{"weight":5.9}},{"type":"Feature","geometry":{"type":"Point","coordinates":[139.67317,35.67004]},"properties":{"weight":1.5}},{"type":"Feature","geometry":{"type":"Point","coordinates":[139.73629,35.67998]},"properties":{"weight":4.8}},{"type":"Feature","geometry":{"type":"Point","coordinates":[139.77072,35.7021]},"properties":{"weight":3.5}},{"type":"Feature","geometry":{"type":"Point","coordinates":[139.67357,35.65648]},"properties":{"weight":4.8}},{"type":"Feature","geometry":{"type":"Point","coordinates":[139.76248,35.68186]},"properties":{"weight":4}},{"type":"Feature","geometry":{"type":"Point","coordinates":[139.79422,35.7046]},"properties":{"weight":1.6}},{"type":"Feature","geometry":{"type":"Point","coordinates":[139.71885,35.64878]},"properties":{"weight":5.7}},{"type":"Feature","geometry":{"type":"Point","coordinates":[139.77345,35.65223]},"properties":{"weight":2.4}},{"type":"Feature","geometry":{"type":"Point","coordinates":[139.73829,35.69431]},"properties":{"weight":4}},{"type":"Feature","geometry":{"type":"Point","coordinates":[139.72775,35.63667]},"properties":{"weight":3.1}},{"type":"Feature","geometry":{"type":"Point","coordinates":[139.72532,35.65827]},"properties":{"weight":5.4}},{"type":"Feature","geometry":{"type":"Point","coordinates":[139.79186,35.69682]},"properties":{"weight":5.4}},{"type":"Feature","geometry":{"type":"Point","coordinates":[139.70484,35.66271]},"properties":{"weight":1.9}},{"type":"Feature","geometry":{"type":"Point","coordinates":[139.76942,35.68065]},"properties":{"weight":5.1}},{"type":"Feature","geometry":{"type":"Point","coordinates":[139.77016,35.70358]},"properties":{"weight":5.1}},{"type":"Feature","geometry":{"type":"Point","coordinates":[139.71179,35.68246]},"properties":{"weight":4.8}},{"type":"Feature","geometry":{"type":"Point","coordinates":[139.71944,35.67388]},"properties":{"weight":3.6}},{"type":"Feature","geometry":{"type":"Point","coordinates":[139.74341,35.67329]},"properties":{"weight":5.4}},{"type":"Feature","geometry":{"type":"Point","coordinates":[139.71159,35.66865]},"properties":{"weight":3.1}},{"type":"Feature","geometry":{"type":"Point","coordinates":[139.72957,35.64763]},"properties":{"weight":5.6}},{"type":"Feature","geometry":{"type":"Point","coordinates":[139.77492,35.66544]},"properties":{"weight":4.8}},{"type":"Feature","geometry":{"type":"Point","coordinates":[139.68401,35.63502]},"properties":{"weight":2.5}},{"type":"Feature","geometry":{"type":"Point","coordinates":[139.72854,35.64668]},"properties":{"weight":3}},{"type":"Feature","geometry":{"type":"Point","coordinates":[139.74541,35.65693]},"properties":{"weight":2.4}},{"type":"Feature","geometry":{"type":"Point","coordinates":[139.70496,35.67672]},"properties":{"weight":1.1}},{"type":"Feature","geometry":{"type":"Point","coordinates":[139.72354,35.6396]},"properties":{"weight":1.6}},{"type":"Feature","geometry":{"type":"Point","coordinates":[139.76877,35.66975]},"properties":{"weight":3.1}},{"type":"Feature","geometry":{"type":"Point","coordinates":[139.68392,35.64552]},"properties":{"weight":5.8}},{"type":"Feature","geometry":{"type":"Point","coordinates":[139.74459,35.65199]},"properties":{"weight":1.7}},{"type":"Feature","geometry":{"type":"Point","coordinates":[139.74097,35.66652]},"properties":{"weight":1.8}},{"type":"Feature","geometry":{"type":"Point","coordinates":[139.67738,35.65597]},"properties":{"weight":1.8}},{"type":"Feature","geometry":{"type":"Point","coordinates":[139.77196,35.6394]},"properties":{"weight":4.1}}]}